SCD 1                   
1 22490U 93009B   26159.00537779  .00000414  00000+0  62464-4 0  9993
2 22490  24.9694 264.2710 0042088  41.0648 119.5596 14.46115906759789
TECHSAT 1B (GO-32)      
1 25397U 98043D   26159.21376741  .00000063  00000+0  47383-4 0  9991
2 25397  99.0065 151.7461 0000556 186.8121 173.3049 14.24426649450058
SCD 2                   
1 25504U 98060A   26158.65745708  .00000438  00000+0  71304-4 0  9996
2 25504  24.9937 130.9274 0016819  23.4031 137.7890 14.45522289458943
DLR-TUBSAT              
1 25757U 99029B   26158.92435428  .00000120  00000+0  41233-4 0  9993
2 25757  98.6693 154.1236 0014631  22.9498 337.2347 14.52424541431908
TERRA                   
1 25994U 99068A   26159.18941899  .00000394  00000+0  89149-4 0  9993
2 25994  97.9459 209.0921 0000938 232.9504 220.4761 14.61096061408291
MAROC-TUBSAT            
1 27004U 01056D   26159.03159182 -.00000020  00000+0  30631-4 0  9996
2 27004  99.8079 335.7188 0020034 164.2847 309.1488 13.70262035224935
AQUA                    
1 27424U 02022A   26159.22552237  .00000844  00000+0  17767-3 0  9992
2 27424  98.4273 128.3297 0001460  54.6909   2.1780 14.62144733281969
SHIYAN-1 (SY-1)         
1 28220U 04012A   26159.11446692  .00014653  00000+0  45408-3 0  9999
2 28220  97.8687 236.5951 0006354  61.8952 298.2931 15.33531399209705
AURA                    
1 28376U 04026A   26159.15325733  .00000839  00000+0  17956-3 0  9990
2 28376  98.3413 115.5321 0001331  71.3920 288.7424 14.61315623164899
IRS-P5 (CARTOSAT-1)     
1 28649U 05017A   26159.01857766  .00001648  00000+0  17189-3 0  9992
2 28649  97.5310 182.4992 0002635  91.5445 268.6076 14.91026283142452
SINAH 1                 
1 28893U 05043D   26159.10170454  .00000343  00000+0  74537-4 0  9996
2 28893  98.2849 293.3709 0013335 307.9223  52.0773 14.64151668 99190
RESURS-DK 1             
1 29228U 06021A   26158.97910051  .00002799  00000+0  16340-3 0  9999
2 29228  69.9339   3.3886 0006437 299.3252  60.7270 15.13177297101180
ARIRANG-2 (KOMPSAT-2)   
1 29268U 06031A   26159.21189203  .00000222  00000+0  50064-4 0  9990
2 29268  97.8311 344.0929 0015851 100.2602 347.8823 14.64654049 60161
LAPAN-TUBSAT            
1 29709U 07001A   26159.23102446  .00001180  00000+0  14171-3 0  9996
2 29709  98.1347 158.2536 0011171 209.5197 150.5388 14.85944228 49825
HAIYANG-1B              
1 31113U 07010A   26159.19501531  .00000102  00000+0  54652-4 0  9993
2 31113  98.3490 141.3892 0012513 224.4780 135.5400 14.31024649999347
COSMO-SKYMED 1          
1 31598U 07023A   26159.17870399  .00002054  00000+0  18344-3 0  9998
2 31598  97.8858 350.9599 0001167  80.4329 279.7024 14.97059399 28449
TERRASAR-X              
1 31698U 07026A   26158.31148263  .00001018  00000+0  51664-4 0  9997
2 31698  97.4442 166.1612 0001875  80.9133 279.2314 15.19147499 51720
WORLDVIEW-1 (WV-1)      
1 32060U 07041A   26159.16679213  .00005263  00000+0  21911-3 0  9993
2 32060  97.3862 279.0417 0003060  45.5974 314.5514 15.24165874 41507
YAOGAN-3                
1 32289U 07055A   26159.20025487  .00001781  00000+0  18694-3 0  9999
2 32289  97.8159 189.1673 0001872  85.7001 274.4431 14.90746607  4530
RADARSAT-2              
1 32382U 07061A   26159.15151369 -.00000055  00000+0 -43036-5 0  9998
2 32382  98.5782 166.2132 0001299  81.0518 279.0811 14.29982548964665
CARTOSAT-2A             
1 32783U 08021A   26159.18516058  .00001161  00000+0  16287-3 0  9996
2 32783  97.7634 208.2009 0012673 135.1724 225.0513 14.79227452977479
HUANJING 1A (HJ-1A)     
1 33320U 08041A   26159.19838714  .00002010  00000+0  24700-3 0  9996
2 33320  97.6686 145.3852 0019167 163.0235 197.1625 14.83969412957073
HUANJING 1B (HJ-1B)     
1 33321U 08041B   26159.23085809  .00000521  00000+0  69373-4 0  9992
2 33321  97.6522 148.6149 0035192 210.9656 148.9484 14.83301156957086
GEOEYE 1                
1 33331U 08042A   26159.13457617  .00000549  00000+0  11203-3 0  9991
2 33331  98.1235 233.1803 0005571  91.1753 269.0089 14.64717816948827
THEOS                   
1 33396U 08049A   26159.16188197 -.00000105  00000+0 -29583-4 0  9997
2 33396  98.5570 216.7384 0001293  79.6339 280.4984 14.20131189916688
COSMO-SKYMED 3          
1 33412U 08054A   26159.17890810  .00002011  00000+0  13890-3 0  9994
2 33412  97.8291  17.6004 0014275 300.9319  59.0504 15.06893022955584
YAOGAN-4                
1 33446U 08061A   26158.78969477  .00001179  00000+0  15082-3 0  9990
2 33446  97.9306  92.3696 0015732 100.1685 260.1304 14.83183133944277
GOSAT (IBUKI)           
1 33492U 09002A   26158.72922116  .00000075  00000+0  21792-4 0  9990
2 33492  98.0882 269.9294 0001531  89.5512 270.5868 14.67539700930076
DEIMOS-1                
1 35681U 09041A   26159.16535394  .00000586  00000+0  93740-4 0  9991
2 35681  97.7400 316.7847 0001040 138.9233 221.2055 14.75228407905553
DUBAISAT-1              
1 35682U 09041B   26159.13520992  .00000855  00000+0  13413-3 0  9994
2 35682  98.0042 292.4931 0011742  99.3668 260.8869 14.75109815903760
